[{"OBJECT_NAME":"STARLINK-30714","OBJECT_ID":"2023-148E","EPOCH":"2026-03-09T06:26:10.169664","MEAN_MOTION":15.30192407,"ECCENTRICITY":0.00010686,"INCLINATION":53.1611,"RA_OF_ASC_NODE":26.4425,"ARG_OF_PERICENTER":87.7795,"MEAN_ANOMALY":272.3328,"EPHEMERIS_TYPE":0,"CLASSIFICATION_TYPE":"U","NORAD_CAT_ID":57939,"ELEMENT_SET_NO":999,"REV_AT_EPOCH":13835,"BSTAR":-1.9342131e-5,"MEAN_MOTION_DOT":-9.32e-6,"MEAN_MOTION_DDOT":0},{"OBJECT_NAME":"OBJECT N","OBJECT_ID":"2019-093N","EPOCH":"2026-03-09T21:41:56.087232","MEAN_MOTION":15.29897693,"ECCENTRICITY":0.0006278,"INCLINATION":98.0505,"RA_OF_ASC_NODE":226.9456,"ARG_OF_PERICENTER":33.3806,"MEAN_ANOMALY":326.7828,"EPHEMERIS_TYPE":0,"CLASSIFICATION_TYPE":"U","NORAD_CAT_ID":44891,"ELEMENT_SET_NO":999,"REV_AT_EPOCH":33957,"BSTAR":0.0010567776,"MEAN_MOTION_DOT":0.00030617,"MEAN_MOTION_DDOT":0}]
